QIANFAN-81              
1 63167U 25046J   25337.08298538  .00000128  00000+0  17859-3 0  9996
2 63167  88.9755 320.8720 0015634 142.6123 217.6119 13.50999033 46185
QIANFAN-82              
1 63168U 25046K   25337.19091175  .00000078  00000+0  10206-3 0  9990
2 63168  88.9755 320.9047 0013572 148.8319 211.3639 13.50972798 46180
QIANFAN-83              
1 63169U 25046L   25337.14816751  .00000075  00000+0  80712-4 0  9998
2 63169  88.9755 320.7043 0015270 136.2255 224.0116 13.61970880 46297
QIANFAN-84              
1 63170U 25046M   25337.14472979 -.00000016  00000+0 -43369-4 0  9994
2 63170  88.9752 321.0424 0016597 147.1437 213.0750 13.50984698 46101
QIANFAN-85              
1 63171U 25046N   25337.21547824  .00000139  00000+0  19599-3 0  9996
2 63171  88.9754 320.9066 0013961 147.7970 212.4037 13.50973073 46188
QIANFAN-86              
1 63172U 25046P   25337.14974130  .00000115  00000+0  15887-3 0  9993
2 63172  88.9757 320.7753 0011727 150.7492 209.4318 13.50973059 46254
QIANFAN-87              
1 63173U 25046Q   25337.19512278  .00000034  00000+0  33723-4 0  9990
2 63173  88.9752 320.8827 0012514 146.6698 213.5243 13.50971567 46198
QIANFAN-88              
1 63174U 25046R   25337.21149527  .00000115  00000+0  15950-3 0  9998
2 63174  88.9755 320.8353 0012679 154.3820 205.7962 13.50977682 46220
